start=new Date('2023-01-12T00:00:00.000Z').valueOf();
sats=[{"TLE_LINE2":"2 47581  53.0538 138.3747 0001427  74.4826 285.6320 15.06403511107267","INCLINATION":"53.0538","MEAN_MOTION_DDOT":"0.0000000000000","SITE":"AFETR","EPHEMERIS_TYPE":"0","NORAD_CAT_ID":"47581","REV_AT_EPOCH":"10726","MEAN_MOTION_DOT":"0.00000802","OBJECT_NAME":"STARLINK-1984","SEMIMAJOR_AXIS":"6925.338","GP_ID":"222764252","ELEMENT_SET_NO":"999","APOAPSIS":"548.191","CENTER_NAME":"EARTH","ARG_OF_PERICENTER":"74.4826","COUNTRY_CODE":"US","DECAY_DATE":null,"RA_OF_ASC_NODE":"138.3747","ECCENTRICITY":"0.00014270","OBJECT_ID":"2021-009AK","TLE_LINE1":"1 47581U 21009AK  23011.52611072  .00000802  00000-0  72703-4 0  9991","FILE":"3740054","MEAN_ELEMENT_THEORY":"SGP4","PERIOD":"95.592","EPOCH":"2023-01-11T12:37:35.966208","MEAN_ANOMALY":"285.6320","BSTAR":"0.00007270300000","TIME_SYSTEM":"UTC","CLASSIFICATION_TYPE":"U","RCS_SIZE":"LARGE","OBJECT_TYPE":"PAYLOAD","LAUNCH_DATE":"2021-02-04","MEAN_MOTION":"15.06403511","PERIAPSIS":"546.215","REF_FRAME":"TEME"},{"NORAD_CAT_ID":"47582","MEAN_MOTION_DOT":"0.00000792","REV_AT_EPOCH":"10702","EPHEMERIS_TYPE":"0","INCLINATION":"53.0533","MEAN_MOTION_DDOT":"0.0000000000000","SITE":"AFETR","TLE_LINE2":"2 47582  53.0533 157.2442 0001341  93.1281 266.9862 15.06401865107020","COUNTRY_CODE":"US","APOAPSIS":"548.137","ARG_OF_PERICENTER":"93.1281","CENTER_NAME":"EARTH","GP_ID":"222824206","ELEMENT_SET_NO":"999","SEMIMAJOR_AXIS":"6925.343","OBJECT_NAME":"STARLINK-1986","PERIOD":"95.592","EPOCH":"2023-01-11T18:41:11.164416","MEAN_ELEMENT_THEORY":"SGP4","FILE":"3740419","TLE_LINE1":"1 47582U 21009AL  23011.77860144  .00000792  00000-0  72037-4 0  9993","OBJECT_ID":"2021-009AL","ECCENTRICITY":"0.00013410","RA_OF_ASC_NODE":"157.2442","DECAY_DATE":null,"LAUNCH_DATE":"2021-02-04","REF_FRAME":"TEME","PERIAPSIS":"546.279","MEAN_MOTION":"15.06401865","OBJECT_TYPE":"PAYLOAD","RCS_SIZE":"LARGE","TIME_SYSTEM":"UTC","BSTAR":"0.00007203700000","MEAN_ANOMALY":"266.9862","CLASSIFICATION_TYPE":"U"},{"ECCENTRICITY":"0.00011150","OBJECT_ID":"2021-009AM","TLE_LINE1":"1 47583U 21009AM  23011.69014022  .00000740  00000-0  68561-4 0  9991","DECAY_DATE":null,"RA_OF_ASC_NODE":"157.6436","EPOCH":"2023-01-11T16:33:48.115008","PERIOD":"95.593","FILE":"3740419","MEAN_ELEMENT_THEORY":"SGP4","RCS_SIZE":"LARGE","CLASSIFICATION_TYPE":"U","TIME_SYSTEM":"UTC","BSTAR":"0.00006856100000","MEAN_ANOMALY":"284.3864","PERIAPSIS":"546.464","LAUNCH_DATE":"2021-02-04","REF_FRAME":"TEME","MEAN_MOTION":"15.06392707","OBJECT_TYPE":"PAYLOAD","SITE":"AFETR","MEAN_MOTION_DDOT":"0.0000000000000","INCLINATION":"53.0564","TLE_LINE2":"2 47583  53.0564 157.6436 0001115  75.7249 284.3864 15.06392707107010","EPHEMERIS_TYPE":"0","REV_AT_EPOCH":"10701","MEAN_MOTION_DOT":"0.00000740","NORAD_CAT_ID":"47583","SEMIMAJOR_AXIS":"6925.371","GP_ID":"222822458","ELEMENT_SET_NO":"999","OBJECT_NAME":"STARLINK-1987","ARG_OF_PERICENTER":"75.7249","CENTER_NAME":"EARTH","APOAPSIS":"548.008","COUNTRY_CODE":"US"},{"ECCENTRICITY":"0.00011890","TLE_LINE1":"1 47585U 21009AP  23011.91499017  .00001008  00000-0  86547-4 0  9991","OBJECT_ID":"2021-009AP","DECAY_DATE":null,"RA_OF_ASC_NODE":"156.6221","EPOCH":"2023-01-11T21:57:35.150688","PERIOD":"95.592","FILE":"3740419","MEAN_ELEMENT_THEORY":"SGP4","RCS_SIZE":"LARGE","CLASSIFICATION_TYPE":"U","BSTAR":"0.00008654700000","MEAN_ANOMALY":"276.4952","TIME_SYSTEM":"UTC","LAUNCH_DATE":"2021-02-04","PERIAPSIS":"546.405","REF_FRAME":"TEME","MEAN_MOTION":"15.06395172","OBJECT_TYPE":"PAYLOAD","SITE":"AFETR","INCLINATION":"53.0544","MEAN_MOTION_DDOT":"0.0000000000000","TLE_LINE2":"2 47585  53.0544 156.6221 0001189  83.6173 276.4952 15.06395172107048","EPHEMERIS_TYPE":"0","MEAN_MOTION_DOT":"0.00001008","REV_AT_EPOCH":"10704","NORAD_CAT_ID":"47585","SEMIMAJOR_AXIS":"6925.363","ELEMENT_SET_NO":"999","GP_ID":"222823208","OBJECT_NAME":"STARLINK-1989","CENTER_NAME":"EARTH","ARG_OF_PERICENTER":"83.6173","APOAPSIS":"548.052","COUNTRY_CODE":"US"},{"GP_ID":"222823960","ELEMENT_SET_NO":"999","SEMIMAJOR_AXIS":"6925.326","OBJECT_NAME":"STARLINK-1990","COUNTRY_CODE":"US","APOAPSIS":"548.205","CENTER_NAME":"EARTH","ARG_OF_PERICENTER":"70.7441","INCLINATION":"53.0534","MEAN_MOTION_DDOT":"0.0000000000000","SITE":"AFETR","TLE_LINE2":"2 47586  53.0534 177.0050 0001464  70.7441 289.3706 15.06407263106758","NORAD_CAT_ID":"47586","MEAN_MOTION_DOT":"0.00002100","REV_AT_EPOCH":"10675","EPHEMERIS_TYPE":"0","RCS_SIZE":"LARGE","BSTAR":"0.00015979000000","TIME_SYSTEM":"UTC","MEAN_ANOMALY":"289.3706","CLASSIFICATION_TYPE":"U","MEAN_MOTION":"15.06407263","LAUNCH_DATE":"2021-02-04","PERIAPSIS":"546.177","REF_FRAME":"TEME","OBJECT_TYPE":"PAYLOAD","OBJECT_ID":"2021-009AQ","TLE_LINE1":"1 47586U 21009AQ  23011.83204931  .00002100  00000-0  15979-3 0  9996","ECCENTRICITY":"0.00014640","RA_OF_ASC_NODE":"177.0050","DECAY_DATE":null,"PERIOD":"95.592","EPOCH":"2023-01-11T19:58:09.060384","MEAN_ELEMENT_THEORY":"SGP4","FILE":"3740419"},{"DECAY_DATE":null,"RA_OF_ASC_NODE":"147.3229","ECCENTRICITY":"0.00012760","TLE_LINE1":"1 47587U 21009AR  23011.76112937 -.00000552  00000-0 -18173-4 0  9994","OBJECT_ID":"2021-009AR","FILE":"3740419","MEAN_ELEMENT_THEORY":"SGP4","EPOCH":"2023-01-11T18:16:01.577568","PERIOD":"95.594","CLASSIFICATION_TYPE":"U","MEAN_ANOMALY":"278.1359","BSTAR":"-0.00001817300000","TIME_SYSTEM":"UTC","RCS_SIZE":"LARGE","OBJECT_TYPE":"PAYLOAD","REF_FRAME":"TEME","LAUNCH_DATE":"2021-02-04","PERIAPSIS":"546.398","MEAN_MOTION":"15.06377768","TLE_LINE2":"2 47587  53.0524 147.3229 0001276  81.9774 278.1359 15.06377768107162","SITE":"AFETR","INCLINATION":"53.0524","MEAN_MOTION_DDOT":"0.0000000000000","EPHEMERIS_TYPE":"0","MEAN_MOTION_DOT":"-0.00000552","REV_AT_EPOCH":"10716","NORAD_CAT_ID":"47587","OBJECT_NAME":"STARLINK-1991","SEMIMAJOR_AXIS":"6925.417","ELEMENT_SET_NO":"999","GP_ID":"222823706","ARG_OF_PERICENTER":"81.9774","CENTER_NAME":"EARTH","APOAPSIS":"548.165","COUNTRY_CODE":"US"},{"INCLINATION":"53.0537","MEAN_MOTION_DDOT":"0.0000000000000","SITE":"AFETR","TLE_LINE2":"2 47588  53.0537 157.0506 0001734  80.8065 279.3120 15.06374029107035","EPHEMERIS_TYPE":"0","NORAD_CAT_ID":"47588","MEAN_MOTION_DOT":"-0.00002982","REV_AT_EPOCH":"10703","SEMIMAJOR_AXIS":"6925.428","GP_ID":"222822959","ELEMENT_SET_NO":"999","OBJECT_NAME":"STARLINK-1993","APOAPSIS":"548.494","CENTER_NAME":"EARTH","ARG_OF_PERICENTER":"80.8065","COUNTRY_CODE":"US","ECCENTRICITY":"0.00017340","TLE_LINE1":"1 47588U 21009AS  23011.81916762 -.00002982  00000-0 -18153-3 0  9995","OBJECT_ID":"2021-009AS","DECAY_DATE":null,"RA_OF_ASC_NODE":"157.0506","PERIOD":"95.594","EPOCH":"2023-01-11T19:39:36.082368","FILE":"3740419","MEAN_ELEMENT_THEORY":"SGP4","RCS_SIZE":"LARGE","MEAN_ANOMALY":"279.3120","BSTAR":"-0.00018153000000","TIME_SYSTEM":"UTC","CLASSIFICATION_TYPE":"U","PERIAPSIS":"546.092","LAUNCH_DATE":"2021-02-04","MEAN_MOTION":"15.06374029","REF_FRAME":"TEME","OBJECT_TYPE":"PAYLOAD"},{"EPOCH":"2023-01-11T18:30:35.704512","PERIOD":"95.592","MEAN_ELEMENT_THEORY":"SGP4","FILE":"3740419","TLE_LINE1":"1 47589U 21009AT  23011.77124658  .00000935  00000-0  81620-4 0  9990","OBJECT_ID":"2021-009AT","ECCENTRICITY":"0.00011830","RA_OF_ASC_NODE":"157.2813","DECAY_DATE":null,"PERIAPSIS":"546.394","LAUNCH_DATE":"2021-02-04","REF_FRAME":"TEME","MEAN_MOTION":"15.06399993","OBJECT_TYPE":"PAYLOAD","RCS_SIZE":"LARGE","CLASSIFICATION_TYPE":"U","BSTAR":"0.00008162000000","TIME_SYSTEM":"UTC","MEAN_ANOMALY":"278.0480","REV_AT_EPOCH":"10702","MEAN_MOTION_DOT":"0.00000935","NORAD_CAT_ID":"47589","EPHEMERIS_TYPE":"0","SITE":"AFETR","MEAN_MOTION_DDOT":"0.0000000000000","INCLINATION":"53.0545","TLE_LINE2":"2 47589  53.0545 157.2813 0001183  82.0643 278.0480 15.06399993107023","COUNTRY_CODE":"US","ARG_OF_PERICENTER":"82.0643","CENTER_NAME":"EARTH","APOAPSIS":"548.033","GP_ID":"222822708","ELEMENT_SET_NO":"999","SEMIMAJOR_AXIS":"6925.349","OBJECT_NAME":"STARLINK-1994"},{"SITE":"AFETR","INCLINATION":"53.0518","MEAN_MOTION_DDOT":"0.0000000000000","TLE_LINE2":"2 47590  53.0518 177.0244 0001391  80.4324 279.6822 15.06396871106750","EPHEMERIS_TYPE":"0","MEAN_MOTION_DOT":"0.00001662","REV_AT_EPOCH":"10675","NORAD_CAT_ID":"47590","SEMIMAJOR_AXIS":"6925.358","ELEMENT_SET_NO":"999","GP_ID":"222823460","OBJECT_NAME":"STARLINK-1995","ARG_OF_PERICENTER":"80.4324","CENTER_NAME":"EARTH","APOAPSIS":"548.186","COUNTRY_CODE":"US","ECCENTRICITY":"0.00013910","TLE_LINE1":"1 47590U 21009AU  23011.82837872  .00001662  00000-0  13043-3 0  9998","OBJECT_ID":"2021-009AU","DECAY_DATE":null,"RA_OF_ASC_NODE":"177.0244","EPOCH":"2023-01-11T19:52:51.921408","PERIOD":"95.592","FILE":"3740419","MEAN_ELEMENT_THEORY":"SGP4","RCS_SIZE":"LARGE","CLASSIFICATION_TYPE":"U","BSTAR":"0.00013043000000","MEAN_ANOMALY":"279.6822","TIME_SYSTEM":"UTC","LAUNCH_DATE":"2021-02-04","REF_FRAME":"TEME","PERIAPSIS":"546.260","MEAN_MOTION":"15.06396871","OBJECT_TYPE":"PAYLOAD"},{"OBJECT_NAME":"STARLINK-1996","SEMIMAJOR_AXIS":"6925.300","GP_ID":"222824207","ELEMENT_SET_NO":"999","CENTER_NAME":"EARTH","ARG_OF_PERICENTER":"79.8827","APOAPSIS":"547.980","COUNTRY_CODE":"US","TLE_LINE2":"2 47591  53.0535 156.9964 0001177  79.8827 280.2295 15.06415917107034","SITE":"AFETR","MEAN_MOTION_DDOT":"0.0000000000000","INCLINATION":"53.0535","EPHEMERIS_TYPE":"0","REV_AT_EPOCH":"10703","MEAN_MOTION_DOT":"0.00002361","NORAD_CAT_ID":"47591","CLASSIFICATION_TYPE":"U","MEAN_ANOMALY":"280.2295","BSTAR":"0.00017728000000","TIME_SYSTEM":"UTC","RCS_SIZE":"LARGE","OBJECT_TYPE":"PAYLOAD","PERIAPSIS":"546.350","LAUNCH_DATE":"2021-02-04","MEAN_MOTION":"15.06415917","REF_FRAME":"TEME","DECAY_DATE":null,"RA_OF_ASC_NODE":"156.9964","ECCENTRICITY":"0.00011770","TLE_LINE1":"1 47591U 21009AV  23011.83387650  .00002361  00000-0  17728-3 0  9995","OBJECT_ID":"2021-009AV","FILE":"3740419","MEAN_ELEMENT_THEORY":"SGP4","EPOCH":"2023-01-11T20:00:46.929600","PERIOD":"95.591"}];
